[{"OBJECT_NAME":"STARLINK-4349","OBJECT_ID":"2022-077B","EPOCH":"2026-03-10T00:00:02.999808","MEAN_MOTION":15.82599286,"ECCENTRICITY":0.00011323,"INCLINATION":97.6018,"RA_OF_ASC_NODE":259.1547,"ARG_OF_PERICENTER":279.8477,"MEAN_ANOMALY":6.0284,"EPHEMERIS_TYPE":0,"CLASSIFICATION_TYPE":"U","NORAD_CAT_ID":53044,"ELEMENT_SET_NO":999,"REV_AT_EPOCH":598,"BSTAR":0.0011162879,"MEAN_MOTION_DOT":0.00238434,"MEAN_MOTION_DDOT":0},{"OBJECT_NAME":"STARLINK-36690","OBJECT_ID":"2026-036K","EPOCH":"2026-03-09T21:28:06.084768","MEAN_MOTION":15.82111541,"ECCENTRICITY":0.0001879,"INCLINATION":42.9988,"RA_OF_ASC_NODE":248.4581,"ARG_OF_PERICENTER":275.0394,"MEAN_ANOMALY":85.0264,"EPHEMERIS_TYPE":0,"CLASSIFICATION_TYPE":"U","NORAD_CAT_ID":67913,"ELEMENT_SET_NO":999,"REV_AT_EPOCH":370,"BSTAR":0.0013686531,"MEAN_MOTION_DOT":0.00299173,"MEAN_MOTION_DDOT":0}]
